{"type": "FeatureCollection", "features": [ {"type": "Feature", "properties": {"norad_id": 64902, "name": "CO3D 2", "group": "resource", "lat": -72.81964826067744, "lon": -130.63542740205042, "alt_km": 513.0697099190565, "timestamp": "2025-12-24T05:51:19.263692+00:00", "meta": {"OBJECT_NAME": "CO3D 2", "OBJECT_ID": "2025-156D", "EPOCH": "2025-12-23T22:25:13.748160", "MEAN_MOTION": 15.20209277, "ECCENTRICITY": 8.011e-05, "INCLINATION": 97.4338, "RA_OF_ASC_NODE": 74.0398, "ARG_OF_PERICENTER": 68.325, "MEAN_ANOMALY": 291.8071, "EPHEMERIS_TYPE": 0, "CLASSIFICATION_TYPE": "U", "NORAD_CAT_ID": 64902, "ELEMENT_SET_NO": 999, "REV_AT_EPOCH": 2290, "BSTAR": 0.00029609136, "MEAN_MOTION_DOT": 6.349e-05, "MEAN_MOTION_DDOT": 0}, "tle": {"line1": "1 64902U 25156D   25357.93418690  .00006349  00000+0  29609-3 0  9992", "line2": "2 64902  97.4338  74.0398 0000801  68.3250 291.8071 15.20209277 22907"}}, "geometry": {"type": "Point", "coordinates": [-130.63542740205042, -72.81964826067744]}}, {"type": "Feature", "properties": {"norad_id": 64903, "name": "CO3D 1", "group": "resource", "lat": -72.06042724784378, "lon": -129.43977210904316, "alt_km": 513.1350586229828, "timestamp": "2025-12-24T05:51:19.263701+00:00", "meta": {"OBJECT_NAME": "CO3D 1", "OBJECT_ID": "2025-156E", "EPOCH": "2025-12-23T22:25:27.014016", "MEAN_MOTION": 15.20205098, "ECCENTRICITY": 8.767e-05, "INCLINATION": 97.4339, "RA_OF_ASC_NODE": 74.0397, "ARG_OF_PERICENTER": 75.5297, "MEAN_ANOMALY": 284.6035, "EPHEMERIS_TYPE": 0, "CLASSIFICATION_TYPE": "U", "NORAD_CAT_ID": 64903, "ELEMENT_SET_NO": 999, "REV_AT_EPOCH": 2290, "BSTAR": 0.00023411843, "MEAN_MOTION_DOT": 5.004e-05, "MEAN_MOTION_DDOT": 0}, "tle": {"line1": "1 64903U 25156E   25357.93434044  .00005004  00000+0  23412-3 0  9997", "line2": "2 64903  97.4339  74.0397 0000876  75.5297 284.6035 15.20205098 22908"}}, "geometry": {"type": "Point", "coordinates": [-129.43977210904316, -72.06042724784378]}}, {"type": "Feature", "properties": {"norad_id": 66514, "name": "SENTINEL-6B", "group": "resource", "lat": -37.99950106036568, "lon": -21.132233091488583, "alt_km": 1339.0306362684123, "timestamp": "2025-12-24T05:51:19.263711+00:00", "meta": {"OBJECT_NAME": "SENTINEL-6B", "OBJECT_ID": "2025-264A", "EPOCH": "2025-12-23T02:27:52.423776", "MEAN_MOTION": 12.8092954, "ECCENTRICITY": 0.00078893, "INCLINATION": 66.0396, "RA_OF_ASC_NODE": 140.9099, "ARG_OF_PERICENTER": 269.9741, "MEAN_ANOMALY": 90.037, "EPHEMERIS_TYPE": 0, "CLASSIFICATION_TYPE": "U", "NORAD_CAT_ID": 66514, "ELEMENT_SET_NO": 999, "REV_AT_EPOCH": 461, "BSTAR": -1.0381303e-05, "MEAN_MOTION_DOT": -6.3e-07, "MEAN_MOTION_DDOT": 0}, "tle": {"line1": "1 66514U 25264A   25357.10269009 -.00000063  00000+0 -10381-4 0  9997", "line2": "2 66514  66.0396 140.9099 0007889 269.9741  90.0370 12.80929540  4616"}}, "geometry": {"type": "Point", "coordinates": [-21.132233091488583, -37.99950106036568]}}]}